[{"OBJECT_NAME":"ORBCOMM FM04","OBJECT_ID":"1998-007C","EPOCH":"2026-03-09T14:44:15.821664","MEAN_MOTION":14.35529153,"ECCENTRICITY":0.0038795,"INCLINATION":107.9614,"RA_OF_ASC_NODE":324.5497,"ARG_OF_PERICENTER":142.9338,"MEAN_ANOMALY":217.4493,"EPHEMERIS_TYPE":0,"CLASSIFICATION_TYPE":"U","NORAD_CAT_ID":25159,"ELEMENT_SET_NO":999,"REV_AT_EPOCH":46230,"BSTAR":0.0004125,"MEAN_MOTION_DOT":1.067e-5,"MEAN_MOTION_DDOT":0},{"OBJECT_NAME":"COSMOS 2251 DEB","OBJECT_ID":"1993-036GW","EPOCH":"2026-03-09T16:26:07.829376","MEAN_MOTION":14.42337666,"ECCENTRICITY":0.00386545,"INCLINATION":74.0153,"RA_OF_ASC_NODE":168.7415,"ARG_OF_PERICENTER":236.3191,"MEAN_ANOMALY":123.4277,"EPHEMERIS_TYPE":0,"CLASSIFICATION_TYPE":"U","NORAD_CAT_ID":34011,"ELEMENT_SET_NO":999,"REV_AT_EPOCH":89169,"BSTAR":0.00098707652,"MEAN_MOTION_DOT":3.264e-5,"MEAN_MOTION_DDOT":0}]
